KUIPER-00188            
1 67142U 25301K   25364.67411786  .00035832  00000+0  10384-2 0  9999
2 67142  51.8702  38.7020 0007529 147.3971 212.7481 15.35191161  3124
KUIPER-00191            
1 67143U 25301L   25364.73711299  .00034669  00000+0  10001-2 0  9992
2 67143  51.8679  38.3745 0006719 145.3078 214.8347 15.35356543  3169
KUIPER-00196            
1 67144U 25301M   25364.72893770  .00046181  00000+0  12939-2 0  9991
2 67144  51.8730  38.3204 0003845 106.8000 253.3409 15.36149132  3131
KUIPER-00204            
1 67145U 25301N   25364.72397497  .00045421  00000+0  12490-2 0  9995
2 67145  51.8742  38.2825 0002042  97.9569 262.1649 15.36743279  3249
KUIPER-00210            
1 67146U 25301P   25364.68135536  .00028873  00000+0  85983-3 0  9995
2 67146  51.8615  38.7429 0010433 162.9248 197.2090 15.34418835  3292
KUIPER-00221            
1 67147U 25301Q   25364.73182083  .00052866  00000+0  14905-2 0  9995
2 67147  51.8721  38.3404 0004889 123.3038 236.8416 15.35890585  3138
KUIPER-00232            
1 67148U 25301R   25364.72241468  .00049306  00000+0  13506-2 0  9999
2 67148  51.8739  38.2764 0002375  55.3153 304.8057 15.36826077  3139
KUIPER-00241            
1 67149U 25301S   25364.72678047  .00038271  00000+0  10658-2 0  9991
2 67149  51.8737  38.3033 0002851 106.8274 253.3025 15.36425479  3463
KUIPER-00245            
1 67150U 25301T   25364.66751020  .00040396  00000+0  11447-2 0  9997
2 67150  51.8726  38.6578 0005110 131.2051 228.9376 15.35851670  3121
KUIPER-00246            
1 67151U 25301U   25364.72963060  .00045223  00000+0  12684-2 0  9992
2 67151  51.8736  38.3241 0004019 120.9255 239.2126 15.36123813  3158
KUIPER-00247            
1 67152U 25301V   25364.74818022  .00029395  00000+0  87982-3 0  9998
2 67152  51.8644  38.4424 0011046 166.5224 193.6059 15.34242463  3138
KUIPER-00248            
1 67153U 25301W   25364.67672758  .00038581  00000+0  11256-2 0  9992
2 67153  51.8684  38.7183 0008854 153.6562 206.4875 15.34934708  3299
