CCSDS_OMM_VERS = 2.0
CREATION_DATE  = 
ORIGINATOR     = 

OBJECT_NAME    = KUIPER-00188
OBJECT_ID      = 2025-301K
CENTER_NAME    = EARTH
REF_FRAME      = TEME
TIME_SYSTEM    = UTC
MEAN_ELEMENT_THEORY = SGP/SGP4

EPOCH          = 2025-12-30T16:10:43.783104
MEAN_MOTION    = 15.35191161
ECCENTRICITY   = .0007529
INCLINATION    = 51.8702
RA_OF_ASC_NODE = 38.7020
ARG_OF_PERICENTER = 147.3971
MEAN_ANOMALY   = 212.7481

EPHEMERIS_TYPE = 0
CLASSIFICATION_TYPE = U
NORAD_CAT_ID   = 67142
ELEMENT_SET_NO = 999
REV_AT_EPOCH   = 312
BSTAR          = .10384E-2
MEAN_MOTION_DOT = .35832E-3
MEAN_MOTION_DDOT = 0

CCSDS_OMM_VERS = 2.0
CREATION_DATE  = 
ORIGINATOR     = 

OBJECT_NAME    = KUIPER-00191
OBJECT_ID      = 2025-301L
CENTER_NAME    = EARTH
REF_FRAME      = TEME
TIME_SYSTEM    = UTC
MEAN_ELEMENT_THEORY = SGP/SGP4

EPOCH          = 2025-12-30T17:41:26.562336
MEAN_MOTION    = 15.35356543
ECCENTRICITY   = .0006719
INCLINATION    = 51.8679
RA_OF_ASC_NODE = 38.3745
ARG_OF_PERICENTER = 145.3078
MEAN_ANOMALY   = 214.8347

EPHEMERIS_TYPE = 0
CLASSIFICATION_TYPE = U
NORAD_CAT_ID   = 67143
ELEMENT_SET_NO = 999
REV_AT_EPOCH   = 316
BSTAR          = .10001E-2
MEAN_MOTION_DOT = .34669E-3
MEAN_MOTION_DDOT = 0

CCSDS_OMM_VERS = 2.0
CREATION_DATE  = 
ORIGINATOR     = 

OBJECT_NAME    = KUIPER-00196
OBJECT_ID      = 2025-301M
CENTER_NAME    = EARTH
REF_FRAME      = TEME
TIME_SYSTEM    = UTC
MEAN_ELEMENT_THEORY = SGP/SGP4

EPOCH          = 2025-12-30T17:29:40.217280
MEAN_MOTION    = 15.36149132
ECCENTRICITY   = .0003845
INCLINATION    = 51.8730
RA_OF_ASC_NODE = 38.3204
ARG_OF_PERICENTER = 106.8000
MEAN_ANOMALY   = 253.3409

EPHEMERIS_TYPE = 0
CLASSIFICATION_TYPE = U
NORAD_CAT_ID   = 67144
ELEMENT_SET_NO = 999
REV_AT_EPOCH   = 313
BSTAR          = .12939E-2
MEAN_MOTION_DOT = .46181E-3
MEAN_MOTION_DDOT = 0

CCSDS_OMM_VERS = 2.0
CREATION_DATE  = 
ORIGINATOR     = 

OBJECT_NAME    = KUIPER-00204
OBJECT_ID      = 2025-301N
CENTER_NAME    = EARTH
REF_FRAME      = TEME
TIME_SYSTEM    = UTC
MEAN_ELEMENT_THEORY = SGP/SGP4

EPOCH          = 2025-12-30T17:22:31.437408
MEAN_MOTION    = 15.36743279
ECCENTRICITY   = .0002042
INCLINATION    = 51.8742
RA_OF_ASC_NODE = 38.2825
ARG_OF_PERICENTER = 97.9569
MEAN_ANOMALY   = 262.1649

EPHEMERIS_TYPE = 0
CLASSIFICATION_TYPE = U
NORAD_CAT_ID   = 67145
ELEMENT_SET_NO = 999
REV_AT_EPOCH   = 324
BSTAR          = .1249E-2
MEAN_MOTION_DOT = .45421E-3
MEAN_MOTION_DDOT = 0

CCSDS_OMM_VERS = 2.0
CREATION_DATE  = 
ORIGINATOR     = 

OBJECT_NAME    = KUIPER-00210
OBJECT_ID      = 2025-301P
CENTER_NAME    = EARTH
REF_FRAME      = TEME
TIME_SYSTEM    = UTC
MEAN_ELEMENT_THEORY = SGP/SGP4

EPOCH          = 2025-12-30T16:21:09.103104
MEAN_MOTION    = 15.34418835
ECCENTRICITY   = .0010433
INCLINATION    = 51.8615
RA_OF_ASC_NODE = 38.7429
ARG_OF_PERICENTER = 162.9248
MEAN_ANOMALY   = 197.2090

EPHEMERIS_TYPE = 0
CLASSIFICATION_TYPE = U
NORAD_CAT_ID   = 67146
ELEMENT_SET_NO = 999
REV_AT_EPOCH   = 329
BSTAR          = .85983E-3
MEAN_MOTION_DOT = .28873E-3
MEAN_MOTION_DDOT = 0

CCSDS_OMM_VERS = 2.0
CREATION_DATE  = 
ORIGINATOR     = 

OBJECT_NAME    = KUIPER-00221
OBJECT_ID      = 2025-301Q
CENTER_NAME    = EARTH
REF_FRAME      = TEME
TIME_SYSTEM    = UTC
MEAN_ELEMENT_THEORY = SGP/SGP4

EPOCH          = 2025-12-30T17:33:49.319712
MEAN_MOTION    = 15.35890585
ECCENTRICITY   = .0004889
INCLINATION    = 51.8721
RA_OF_ASC_NODE = 38.3404
ARG_OF_PERICENTER = 123.3038
MEAN_ANOMALY   = 236.8416

EPHEMERIS_TYPE = 0
CLASSIFICATION_TYPE = U
NORAD_CAT_ID   = 67147
ELEMENT_SET_NO = 999
REV_AT_EPOCH   = 313
BSTAR          = .14905E-2
MEAN_MOTION_DOT = .52866E-3
MEAN_MOTION_DDOT = 0

CCSDS_OMM_VERS = 2.0
CREATION_DATE  = 
ORIGINATOR     = 

OBJECT_NAME    = KUIPER-00232
OBJECT_ID      = 2025-301R
CENTER_NAME    = EARTH
REF_FRAME      = TEME
TIME_SYSTEM    = UTC
MEAN_ELEMENT_THEORY = SGP/SGP4

EPOCH          = 2025-12-30T17:20:16.628352
MEAN_MOTION    = 15.36826077
ECCENTRICITY   = .0002375
INCLINATION    = 51.8739
RA_OF_ASC_NODE = 38.2764
ARG_OF_PERICENTER = 55.3153
MEAN_ANOMALY   = 304.8057

EPHEMERIS_TYPE = 0
CLASSIFICATION_TYPE = U
NORAD_CAT_ID   = 67148
ELEMENT_SET_NO = 999
REV_AT_EPOCH   = 313
BSTAR          = .13506E-2
MEAN_MOTION_DOT = .49306E-3
MEAN_MOTION_DDOT = 0

CCSDS_OMM_VERS = 2.0
CREATION_DATE  = 
ORIGINATOR     = 

OBJECT_NAME    = KUIPER-00241
OBJECT_ID      = 2025-301S
CENTER_NAME    = EARTH
REF_FRAME      = TEME
TIME_SYSTEM    = UTC
MEAN_ELEMENT_THEORY = SGP/SGP4

EPOCH          = 2025-12-30T17:26:33.832608
MEAN_MOTION    = 15.36425479
ECCENTRICITY   = .0002851
INCLINATION    = 51.8737
RA_OF_ASC_NODE = 38.3033
ARG_OF_PERICENTER = 106.8274
MEAN_ANOMALY   = 253.3025

EPHEMERIS_TYPE = 0
CLASSIFICATION_TYPE = U
NORAD_CAT_ID   = 67149
ELEMENT_SET_NO = 999
REV_AT_EPOCH   = 346
BSTAR          = .10658E-2
MEAN_MOTION_DOT = .38271E-3
MEAN_MOTION_DDOT = 0

CCSDS_OMM_VERS = 2.0
CREATION_DATE  = 
ORIGINATOR     = 

OBJECT_NAME    = KUIPER-00245
OBJECT_ID      = 2025-301T
CENTER_NAME    = EARTH
REF_FRAME      = TEME
TIME_SYSTEM    = UTC
MEAN_ELEMENT_THEORY = SGP/SGP4

EPOCH          = 2025-12-30T16:01:12.881280
MEAN_MOTION    = 15.35851670
ECCENTRICITY   = .000511
INCLINATION    = 51.8726
RA_OF_ASC_NODE = 38.6578
ARG_OF_PERICENTER = 131.2051
MEAN_ANOMALY   = 228.9376

EPHEMERIS_TYPE = 0
CLASSIFICATION_TYPE = U
NORAD_CAT_ID   = 67150
ELEMENT_SET_NO = 999
REV_AT_EPOCH   = 312
BSTAR          = .11447E-2
MEAN_MOTION_DOT = .40396E-3
MEAN_MOTION_DDOT = 0

CCSDS_OMM_VERS = 2.0
CREATION_DATE  = 
ORIGINATOR     = 

OBJECT_NAME    = KUIPER-00246
OBJECT_ID      = 2025-301U
CENTER_NAME    = EARTH
REF_FRAME      = TEME
TIME_SYSTEM    = UTC
MEAN_ELEMENT_THEORY = SGP/SGP4

EPOCH          = 2025-12-30T17:30:40.083840
MEAN_MOTION    = 15.36123813
ECCENTRICITY   = .0004019
INCLINATION    = 51.8736
RA_OF_ASC_NODE = 38.3241
ARG_OF_PERICENTER = 120.9255
MEAN_ANOMALY   = 239.2126

EPHEMERIS_TYPE = 0
CLASSIFICATION_TYPE = U
NORAD_CAT_ID   = 67151
ELEMENT_SET_NO = 999
REV_AT_EPOCH   = 315
BSTAR          = .12684E-2
MEAN_MOTION_DOT = .45223E-3
MEAN_MOTION_DDOT = 0

CCSDS_OMM_VERS = 2.0
CREATION_DATE  = 
ORIGINATOR     = 

OBJECT_NAME    = KUIPER-00247
OBJECT_ID      = 2025-301V
CENTER_NAME    = EARTH
REF_FRAME      = TEME
TIME_SYSTEM    = UTC
MEAN_ELEMENT_THEORY = SGP/SGP4

EPOCH          = 2025-12-30T17:57:22.771008
MEAN_MOTION    = 15.34242463
ECCENTRICITY   = .0011046
INCLINATION    = 51.8644
RA_OF_ASC_NODE = 38.4424
ARG_OF_PERICENTER = 166.5224
MEAN_ANOMALY   = 193.6059

EPHEMERIS_TYPE = 0
CLASSIFICATION_TYPE = U
NORAD_CAT_ID   = 67152
ELEMENT_SET_NO = 999
REV_AT_EPOCH   = 313
BSTAR          = .87982E-3
MEAN_MOTION_DOT = .29395E-3
MEAN_MOTION_DDOT = 0

CCSDS_OMM_VERS = 2.0
CREATION_DATE  = 
ORIGINATOR     = 

OBJECT_NAME    = KUIPER-00248
OBJECT_ID      = 2025-301W
CENTER_NAME    = EARTH
REF_FRAME      = TEME
TIME_SYSTEM    = UTC
MEAN_ELEMENT_THEORY = SGP/SGP4

EPOCH          = 2025-12-30T16:14:29.262912
MEAN_MOTION    = 15.34934708
ECCENTRICITY   = .0008854
INCLINATION    = 51.8684
RA_OF_ASC_NODE = 38.7183
ARG_OF_PERICENTER = 153.6562
MEAN_ANOMALY   = 206.4875

EPHEMERIS_TYPE = 0
CLASSIFICATION_TYPE = U
NORAD_CAT_ID   = 67153
ELEMENT_SET_NO = 999
REV_AT_EPOCH   = 329
BSTAR          = .11256E-2
MEAN_MOTION_DOT = .38581E-3
MEAN_MOTION_DDOT = 0

